[
    {
        "OBJECT_NAME": "BEIDOU-3 M1",
        "OBJECT_ID": "2017-069A",
        "EPOCH": "2025-11-21T20:50:21.659136",
        "MEAN_MOTION": 1.86231249,
        "ECCENTRICITY": 0.00083523,
        "INCLINATION": 56.5089,
        "RA_OF_ASC_NODE": 69.9242,
        "ARG_OF_PERICENTER": 303.4401,
        "MEAN_ANOMALY": 56.4743,
        "EPHEMERIS_TYPE": 0,
        "CLASSIFICATION_TYPE": "U",
        "NORAD_CAT_ID": 43001,
        "ELEMENT_SET_NO": 999,
        "REV_AT_EPOCH": 5474,
        "BSTAR": 0,
        "MEAN_MOTION_DOT": -4.1e-07,
        "MEAN_MOTION_DDOT": 0
    },
    {
        "OBJECT_NAME": "BEIDOU-3 M2",
        "OBJECT_ID": "2017-069B",
        "EPOCH": "2025-11-22T21:08:00.398688",
        "MEAN_MOTION": 1.86230845,
        "ECCENTRICITY": 0.00058681,
        "INCLINATION": 56.5093,
        "RA_OF_ASC_NODE": 69.9265,
        "ARG_OF_PERICENTER": 334.9945,
        "MEAN_ANOMALY": 24.9764,
        "EPHEMERIS_TYPE": 0,
        "CLASSIFICATION_TYPE": "U",
        "NORAD_CAT_ID": 43002,
        "ELEMENT_SET_NO": 999,
        "REV_AT_EPOCH": 5475,
        "BSTAR": 0,
        "MEAN_MOTION_DOT": -3.1e-07,
        "MEAN_MOTION_DDOT": 0
    },
    {
        "OBJECT_NAME": "BEIDOU-3 M7",
        "OBJECT_ID": "2018-003A",
        "EPOCH": "2025-11-23T03:51:36.148320",
        "MEAN_MOTION": 1.86232539,
        "ECCENTRICITY": 0.00024367,
        "INCLINATION": 54.5143,
        "RA_OF_ASC_NODE": 309.496,
        "ARG_OF_PERICENTER": 74.2143,
        "MEAN_ANOMALY": 285.8064,
        "EPHEMERIS_TYPE": 0,
        "CLASSIFICATION_TYPE": "U",
        "NORAD_CAT_ID": 43107,
        "ELEMENT_SET_NO": 999,
        "REV_AT_EPOCH": 5351,
        "BSTAR": 0,
        "MEAN_MOTION_DOT": -5.5e-07,
        "MEAN_MOTION_DDOT": 0
    },
    {
        "OBJECT_NAME": "BEIDOU-3 M8",
        "OBJECT_ID": "2018-003B",
        "EPOCH": "2025-11-23T15:25:14.877120",
        "MEAN_MOTION": 1.86231016,
        "ECCENTRICITY": 0.0004909,
        "INCLINATION": 54.5066,
        "RA_OF_ASC_NODE": 309.4621,
        "ARG_OF_PERICENTER": 271.445,
        "MEAN_ANOMALY": 88.4934,
        "EPHEMERIS_TYPE": 0,
        "CLASSIFICATION_TYPE": "U",
        "NORAD_CAT_ID": 43108,
        "ELEMENT_SET_NO": 999,
        "REV_AT_EPOCH": 5353,
        "BSTAR": 0,
        "MEAN_MOTION_DOT": -5.2e-07,
        "MEAN_MOTION_DDOT": 0
    },
    {
        "OBJECT_NAME": "BEIDOU-3 M4",
        "OBJECT_ID": "2018-018A",
        "EPOCH": "2025-11-23T13:08:17.401632",
        "MEAN_MOTION": 1.86231135,
        "ECCENTRICITY": 0.0003941,
        "INCLINATION": 56.4692,
        "RA_OF_ASC_NODE": 69.94,
        "ARG_OF_PERICENTER": 20.2152,
        "MEAN_ANOMALY": 339.803,
        "EPHEMERIS_TYPE": 0,
        "CLASSIFICATION_TYPE": "U",
        "NORAD_CAT_ID": 43207,
        "ELEMENT_SET_NO": 999,
        "REV_AT_EPOCH": 5291,
        "BSTAR": 0,
        "MEAN_MOTION_DOT": -2.6e-07,
        "MEAN_MOTION_DDOT": 0
    },
    {
        "OBJECT_NAME": "BEIDOU-3 M3",
        "OBJECT_ID": "2018-018B",
        "EPOCH": "2025-11-24T03:37:19.317792",
        "MEAN_MOTION": 1.8623129,
        "ECCENTRICITY": 0.0005878,
        "INCLINATION": 56.4692,
        "RA_OF_ASC_NODE": 69.9242,
        "ARG_OF_PERICENTER": 317.8375,
        "MEAN_ANOMALY": 42.1228,
        "EPHEMERIS_TYPE": 0,
        "CLASSIFICATION_TYPE": "U",
        "NORAD_CAT_ID": 43208,
        "ELEMENT_SET_NO": 999,
        "REV_AT_EPOCH": 5292,
        "BSTAR": 0,
        "MEAN_MOTION_DOT": -2.1e-07,
        "MEAN_MOTION_DDOT": 0
    },
    {
        "OBJECT_NAME": "BEIDOU-3 M9",
        "OBJECT_ID": "2018-029A",
        "EPOCH": "2025-11-23T07:01:54.096672",
        "MEAN_MOTION": 1.86228366,
        "ECCENTRICITY": 0.0001872,
        "INCLINATION": 54.384,
        "RA_OF_ASC_NODE": 307.1467,
        "ARG_OF_PERICENTER": 270.0995,
        "MEAN_ANOMALY": 89.8712,
        "EPHEMERIS_TYPE": 0,
        "CLASSIFICATION_TYPE": "U",
        "NORAD_CAT_ID": 43245,
        "ELEMENT_SET_NO": 999,
        "REV_AT_EPOCH": 5206,
        "BSTAR": 0,
        "MEAN_MOTION_DOT": -5.2e-07,
        "MEAN_MOTION_DDOT": 0
    },
    {
        "OBJECT_NAME": "BEIDOU-3 M10",
        "OBJECT_ID": "2018-029B",
        "EPOCH": "2025-11-22T16:35:34.978848",
        "MEAN_MOTION": 1.86229154,
        "ECCENTRICITY": 0.00037916,
        "INCLINATION": 54.3816,
        "RA_OF_ASC_NODE": 307.1944,
        "ARG_OF_PERICENTER": 357.3472,
        "MEAN_ANOMALY": 2.6416,
        "EPHEMERIS_TYPE": 0,
        "CLASSIFICATION_TYPE": "U",
        "NORAD_CAT_ID": 43246,
        "ELEMENT_SET_NO": 999,
        "REV_AT_EPOCH": 5203,
        "BSTAR": 0,
        "MEAN_MOTION_DOT": -5.6e-07,
        "MEAN_MOTION_DDOT": 0
    },
    {
        "OBJECT_NAME": "BEIDOU-2 IGSO-7",
        "OBJECT_ID": "2018-057A",
        "EPOCH": "2025-11-23T23:08:48.848928",
        "MEAN_MOTION": 1.00262951,
        "ECCENTRICITY": 0.0092114,
        "INCLINATION": 55.1722,
        "RA_OF_ASC_NODE": 164.8365,
        "ARG_OF_PERICENTER": 235.1825,
        "MEAN_ANOMALY": 122.2177,
        "EPHEMERIS_TYPE": 0,
        "CLASSIFICATION_TYPE": "U",
        "NORAD_CAT_ID": 43539,
        "ELEMENT_SET_NO": 999,
        "REV_AT_EPOCH": 2706,
        "BSTAR": 0,
        "MEAN_MOTION_DOT": -5.1e-07,
        "MEAN_MOTION_DDOT": 0
    },
    {
        "OBJECT_NAME": "BEIDOU-3 M5",
        "OBJECT_ID": "2018-062A",
        "EPOCH": "2025-11-23T23:45:44.066304",
        "MEAN_MOTION": 1.86228789,
        "ECCENTRICITY": 0.0002245,
        "INCLINATION": 54.0891,
        "RA_OF_ASC_NODE": 189.2817,
        "ARG_OF_PERICENTER": 347.1888,
        "MEAN_ANOMALY": 12.9011,
        "EPHEMERIS_TYPE": 0,
        "CLASSIFICATION_TYPE": "U",
        "NORAD_CAT_ID": 43581,
        "ELEMENT_SET_NO": 999,
        "REV_AT_EPOCH": 4981,
        "BSTAR": 0,
        "MEAN_MOTION_DOT": 6.6e-07,
        "MEAN_MOTION_DDOT": 0
    },
    {
        "OBJECT_NAME": "BEIDOU-3 M6",
        "OBJECT_ID": "2018-062B",
        "EPOCH": "2025-11-23T20:28:42.648096",
        "MEAN_MOTION": 1.86229866,
        "ECCENTRICITY": 0.0007669,
        "INCLINATION": 54.0888,
        "RA_OF_ASC_NODE": 189.2756,
        "ARG_OF_PERICENTER": 44.5317,
        "MEAN_ANOMALY": 315.6262,
        "EPHEMERIS_TYPE": 0,
        "CLASSIFICATION_TYPE": "U",
        "NORAD_CAT_ID": 43582,
        "ELEMENT_SET_NO": 999,
        "REV_AT_EPOCH": 4981,
        "BSTAR": 0,
        "MEAN_MOTION_DOT": 6.7e-07,
        "MEAN_MOTION_DDOT": 0
    },
    {
        "OBJECT_NAME": "BEIDOU-3 M12",
        "OBJECT_ID": "2018-067A",
        "EPOCH": "2025-11-23T06:05:40.174080",
        "MEAN_MOTION": 1.86227746,
        "ECCENTRICITY": 0.0009086,
        "INCLINATION": 54.1831,
        "RA_OF_ASC_NODE": 188.0249,
        "ARG_OF_PERICENTER": 39.5062,
        "MEAN_ANOMALY": 320.6579,
        "EPHEMERIS_TYPE": 0,
        "CLASSIFICATION_TYPE": "U",
        "NORAD_CAT_ID": 43602,
        "ELEMENT_SET_NO": 999,
        "REV_AT_EPOCH": 4928,
        "BSTAR": 0,
        "MEAN_MOTION_DOT": 6.9e-07,
        "MEAN_MOTION_DDOT": 0
    },
    {
        "OBJECT_NAME": "BEIDOU-3 M11",
        "OBJECT_ID": "2018-067B",
        "EPOCH": "2025-11-23T22:12:31.275936",
        "MEAN_MOTION": 1.86227173,
        "ECCENTRICITY": 0.000569,
        "INCLINATION": 54.1804,
        "RA_OF_ASC_NODE": 187.9661,
        "ARG_OF_PERICENTER": 37.7102,
        "MEAN_ANOMALY": 322.4245,
        "EPHEMERIS_TYPE": 0,
        "CLASSIFICATION_TYPE": "U",
        "NORAD_CAT_ID": 43603,
        "ELEMENT_SET_NO": 999,
        "REV_AT_EPOCH": 4932,
        "BSTAR": 0,
        "MEAN_MOTION_DOT": 6.8e-07,
        "MEAN_MOTION_DDOT": 0
    }
]