BEIDOU-3 M1 (C19)       
1 43001U 17069A   25325.86830624 -.00000041  00000+0  00000+0 0  9999
2 43001  56.5089  69.9242 0008352 303.4401  56.4743  1.86231249 54743
BEIDOU-3 M2 (C20)       
1 43002U 17069B   25326.88056017 -.00000031  00000+0  00000+0 0  9998
2 43002  56.5093  69.9265 0005868 334.9945  24.9764  1.86230845 54750
BEIDOU-3 M7 (C27)       
1 43107U 18003A   25327.16083505 -.00000055  00000+0  00000+0 0  9993
2 43107  54.5143 309.4960 0002436  74.2143 285.8064  1.86232539 53512
BEIDOU-3 M8 (C28)       
1 43108U 18003B   25327.64253330 -.00000052  00000+0  00000+0 0  9999
2 43108  54.5066 309.4621 0004909 271.4450  88.4934  1.86231016 53534
BEIDOU-3 M4 (C22)       
1 43207U 18018A   25327.54742363 -.00000026  00000+0  00000+0 0  9994
2 43207  56.4692  69.9400 0003941  20.2152 339.8030  1.86231135 52910
BEIDOU-3 M3 (C21)       
1 43208U 18018B   25328.15091803 -.00000021  00000+0  00000+0 0  9994
2 43208  56.4692  69.9242 0005878 317.8375  42.1228  1.86231290 52924
BEIDOU-3 M9 (C29)       
1 43245U 18029A   25327.29298723 -.00000052  00000+0  00000+0 0  9995
2 43245  54.3840 307.1467 0001872 270.0995  89.8712  1.86228366 52062
BEIDOU-3 M10 (C30)      
1 43246U 18029B   25326.69137707 -.00000056  00000+0  00000+0 0  9997
2 43246  54.3816 307.1944 0003791 357.3472   2.6416  1.86229154 52034
BEIDOU-2 IGSO-7 (C16)   
1 43539U 18057A   25327.96445427 -.00000051  00000+0  00000+0 0  9990
2 43539  55.1722 164.8365 0092114 235.1825 122.2177  1.00262951 27067
BEIDOU-3 M5 (C23)       
1 43581U 18062A   25327.99009336  .00000066  00000+0  00000+0 0  9996
2 43581  54.0891 189.2817 0002245 347.1888  12.9011  1.86228789 49815
BEIDOU-3 M6 (C24)       
1 43582U 18062B   25327.85327139  .00000067  00000+0  00000+0 0  9997
2 43582  54.0888 189.2756 0007669  44.5317 315.6262  1.86229866 49812
BEIDOU-3 M12 (C26)      
1 43602U 18067A   25327.25393720  .00000069  00000+0  00000+0 0  9990
2 43602  54.1831 188.0249 0009086  39.5062 320.6579  1.86227746 49287
BEIDOU-3 M11 (C25)      
1 43603U 18067B   25327.92536199  .00000068  00000+0  00000+0 0  9993
2 43603  54.1804 187.9661 0005690  37.7102 322.4245  1.86227173 49325
